[{"OBJECT_NAME":"SCS-01 M","OBJECT_ID":"2025-100M","EPOCH":"2026-03-09T23:50:15.541152","MEAN_MOTION":15.31880861,"ECCENTRICITY":0.00078021,"INCLINATION":97.3725,"RA_OF_ASC_NODE":145.6908,"ARG_OF_PERICENTER":292.3826,"MEAN_ANOMALY":67.6588,"EPHEMERIS_TYPE":0,"CLASSIFICATION_TYPE":"U","NORAD_CAT_ID":63993,"ELEMENT_SET_NO":999,"REV_AT_EPOCH":4565,"BSTAR":0.0012010051,"MEAN_MOTION_DOT":0.00037061,"MEAN_MOTION_DDOT":0},{"OBJECT_NAME":"STARLINK-35324","OBJECT_ID":"2025-221R","EPOCH":"2026-03-09T11:12:23.129568","MEAN_MOTION":15.30196161,"ECCENTRICITY":0.00011692,"INCLINATION":53.159,"RA_OF_ASC_NODE":89.7805,"ARG_OF_PERICENTER":92.1419,"MEAN_ANOMALY":267.9715,"EPHEMERIS_TYPE":0,"CLASSIFICATION_TYPE":"U","NORAD_CAT_ID":65838,"ELEMENT_SET_NO":999,"REV_AT_EPOCH":2469,"BSTAR":0.0012222047,"MEAN_MOTION_DOT":0.0003601,"MEAN_MOTION_DDOT":0}]
